COSMOS 2251 DEB         
1 40230U 93036BVK 17345.38504807  .00000268  00000-0  97139-4 0  9994
2 40230  74.0462 231.4893 0023575 292.3291 189.3627 14.37966005168703
